THOR 7                  
1 40613U 15022A   25081.38864172 -.00000004  00000+0  00000+0 0  9992
2 40613   0.0147 171.6659 0002584 194.0776 313.6346  1.00271937 36281
TURKMENALEM52E/MONACOSAT
1 40617U 15023A   25081.89829184  .00000107  00000+0  00000+0 0  9990
2 40617   0.0132 130.8134 0003499 236.7431 188.4841  1.00270452 36326
DIRECTV 15              
1 40663U 15026A   25081.59856600 -.00000099  00000+0  00000+0 0  9995
2 40663   0.0315  98.1619 0000189  70.9008 123.8897  1.00273356 35931
SKY MEXICO-1            
1 40664U 15026B   25082.14141837 -.00000232  00000+0  00000+0 0  9996
2 40664   0.0444 352.9752 0002487  34.1659 125.8884  1.00271050 36018
METEOSAT-11 (MSG-4)     
1 40732U 15034A   25081.77961490  .00000065  00000+0  00000+0 0  9997
2 40732   2.0726  72.1924 0000839 299.6021  98.5438  1.00270902  2694
STAR ONE C4             
1 40733U 15034B   25081.53794539 -.00000261  00000+0  00000+0 0  9999
2 40733   0.0442   9.2803 0002809   4.0087 290.6342  1.00269138 35485
WGS F7 (USA 263)        
1 40746U 15036A   25081.74906083  .00000020  00000+0  00000+0 0  9999
2 40746   0.0043 183.8619 0000205  21.0350  60.2344  1.00269543 35348
INTELSAT 34 (IS-34)     
1 40874U 15039A   25081.53239046 -.00000281  00000+0  00000+0 0  9999
2 40874   0.0179 209.2355 0000354 356.0028 111.1969  1.00271203 35095
EUTELSAT 8 WEST B       
1 40875U 15039B   25081.91068309 -.00000063  00000+0  00000+0 0  9992
2 40875   0.0678 357.3836 0003722   3.8734 139.2213  1.00271911 35125
GSAT-6                  
1 40880U 15041A   25081.84265630 -.00000157  00000+0  00000+0 0  9993
2 40880   0.7500  88.8147 0003080 267.7418 209.8992  1.00271367 35077
INMARSAT 5-F3           
1 40882U 15042A   25081.74906083  .00000053  00000+0  00000+0 0  9993
2 40882   0.0345  79.7858 0000627 354.4158 195.5489  1.00268163 35034
MUOS-4                  
1 40887U 15044A   25081.41850015 -.00000087  00000+0  00000+0 0  9995
2 40887   3.5246  37.5419 0058638 358.0784  10.2028  1.00272135 35038
TJS-1                   
1 40892U 15046A   25081.85707845 -.00000154  00000+0  00000+0 0  9998
2 40892   0.1127 252.2587 0002118 116.6548 275.1829  1.00269663 35049
EXPRESS-AM8             
1 40895U 15048A   25082.07961382 -.00000108  00000+0  00000+0 0  9995
2 40895   0.0153 238.0000 0000198 169.3689 148.1007  1.00274407 34856
SKY MUSTER 1 (NBN1A)    
1 40940U 15054A   25081.99694147 -.00000276  00000+0  00000+0 0  9991
2 40940   0.0155 238.5986 0001678 129.7009 311.5903  1.00271403 34727
ARSAT 2                 
1 40941U 15054B   25082.10129263 -.00000222  00000+0  00000+0 0  9999
2 40941   0.0156 230.4440 0001752 127.7824 138.0569  1.00272391 34784
MORELOS 3               
1 40946U 15056A   25081.58835344 -.00000038  00000+0  00000+0 0  9996
2 40946   2.9748   1.2937 0003465 356.0827 281.6420  1.00271705 34751
APSTAR-9                
1 40982U 15059A   25081.85447204 -.00000263  00000+0  00000+0 0  9993
2 40982   0.0418   7.7024 0001373 350.5210 271.9832  1.00271202 34596
TURKSAT 4B              
1 40984U 15060A   25081.83623741  .00000118  00000+0  00000+0 0  9995
2 40984   0.0171 146.8743 0002169 222.8936 161.8218  1.00272325 34577
ZHONGXING-2C            
1 41021U 15063A   25081.86086338 -.00000321  00000+0  00000+0 0  9996
2 41021   0.1775  96.4532 0002017   4.8689 132.6012  1.00273014 34475
GSAT-15                 
1 41028U 15065A   25081.81989120 -.00000255  00000+0  00000+0 0  9997
2 41028   0.0336 263.5904 0002442 129.6385 175.9868  1.00272976 34278
BADR-7 (ARABSAT-6B)     
1 41029U 15065B   25081.86155899  .00000148  00000+0  00000+0 0  9991
2 41029   0.0232 198.8819 0002957  59.5421 258.3196  1.00273378 34246
LAOSAT 1                
1 41034U 15067A   25081.85177874 -.00000340  00000+0  00000+0 0  9990
2 41034   0.0435   1.6664 0001763 333.9916 280.0875  1.00270805 34336
TELSTAR 12V             
1 41036U 15068A   25081.92507404 -.00000116  00000+0  00000+0 0  9998
2 41036   0.0183 211.2202 0002588 152.7541 134.7051  1.00272617 34101
ELEKTRO-L 2             
1 41105U 15074A   25081.23447590 -.00000111  00000+0  00000+0 0  9990
2 41105   5.5493  76.0733 0002631 233.5680 300.2276  1.00272048 33970
COSMOS 2513             
1 41121U 15075A   25081.70650341 -.00000135  00000+0  00000+0 0  9997
2 41121   0.0490 103.4013 0002449 303.7053 107.9222  1.00270860 34011
EXPRESS-AMU1            
1 41191U 15082A   25081.82614130  .00000158  00000+0  00000+0 0  9995
2 41191   0.0147 133.9364 0002895 218.2452 161.8701  1.00272646 33746
GAOFEN-4                
1 41194U 15083A   25081.86086338 -.00000332  00000+0  00000+0 0  9991
2 41194   0.0705 302.5581 0001742  90.7187 202.9358  1.00271778 34002
BELINTERSAT-1           
1 41238U 16001A   25081.83649806  .00000110  00000+0  00000+0 0  9996
2 41238   0.0421 305.9792 0001778 313.6164 273.5750  1.00271198 33711
EUTELSAT 9B             
1 41310U 16005A   25082.18515949  .00000064  00000+0  00000+0 0  9998
2 41310   0.0504  63.2738 0004012 275.6165 277.6734  1.00270810 33593
SES-9                   
1 41380U 16013A   25081.86086338 -.00000342  00000+0  00000+0 0  9993
2 41380   0.0291 282.2595 0001833 127.9282 188.6043  1.00271201 32918
EUTELSAT 65 WEST A      
1 41382U 16014A   25082.21065325 -.00000274  00000+0  00000+0 0  9993
2 41382   0.0571  16.8718 0002153 353.5967 181.1066  1.00270425 33126
IRNSS-1F                
1 41384U 16015A   25081.18991304  .00000163  00000+0  00000+0 0  9992
2 41384   4.2269 108.5778 0019896 189.8832 342.2470  1.00272557 33123
BEIDOU-2 IGSO-6         
1 41434U 16021A   25081.84534959 -.00000127  00000+0  00000+0 0  9998
2 41434  59.5915  42.5433 0053301 230.1829 306.9089  1.00261024 32950
IRNSS-1G                
1 41469U 16027A   25082.18463035 -.00000331  00000+0  00000+0 0  9993
2 41469   4.0925 109.4924 0006499 313.6594 313.7854  1.00270950 32655
JCSAT-2B                
1 41471U 16028A   25081.92830597 -.00000162  00000+0  00000+0 0  9991
2 41471   0.0170 185.2926 0000930 190.2457 293.3178  1.00271550 32560
THAICOM 8               
1 41552U 16031A   25082.14350378 -.00000119  00000+0  00000+0 0  9996
2 41552   0.0756  40.1439 0004489 330.2130 300.7050  1.00272098 32262
INTELSAT 31 (IS-31)     
1 41581U 16035A   25081.08655850 -.00000146  00000+0  00000+0 0  9997
2 41581   0.0094 176.8622 0001964  37.1720 261.8894  1.00271015 32141
BEIDOU-2 G7             
1 41586U 16037A   25081.84821664 -.00000350  00000+0  00000+0 0  9993
2 41586   1.5524  67.6653 0010377 335.1304 193.6138  1.00276997  2366
ABS-2A (MONGOLSAT-1)    
1 41588U 16038A   25082.12654316 -.00000081  00000+0  00000+0 0  9997
2 41588   0.0146 187.5506 0001595 130.8965 342.6844  1.00269043 32161
EUTELSAT 117 WEST B     
1 41589U 16038B   25081.70461492 -.00000007  00000+0  00000+0 0  9990
2 41589   0.0253  25.9260 0000548 265.8401  25.3380  1.00266388 32130
BRISAT                  
1 41591U 16039A   25081.67629469 -.00000193  00000+0  00000+0 0  9996
2 41591   0.0176 210.6699 0002147 151.6807 212.0257  1.00271574 32080
ECHOSTAR 18             
1 41592U 16039B   25081.99280745 -.00000279  00000+0  00000+0 0  9997
2 41592   0.0228 162.0977 0001434 207.2843 107.4139  1.00268229 32094
MUOS-5                  
1 41622U 16041A   25082.16213619 -.00000124  00000+0  00000+0 0  9999
2 41622   3.2233 297.0190 0192416 258.5884 298.6180  1.00272170 32549
TIANTONG-1 1            
1 41725U 16048A   25081.86086338 -.00000313  00000+0  00000+0 0  9992
2 41725   3.0385  37.0075 0006788 339.5403 215.3508  1.00274289 31740
JCSAT-16                
1 41729U 16050A   25081.85490644 -.00000248  00000+0  00000+0 0  9994
2 41729   0.0228 161.1634 0002093 282.2036 188.9530  1.00268240 31535
USA 270                 
1 41744U 16052A   25067.30372234 -.00000377  00000+0  00000+0 0  9994
2 41744   2.9987  83.1498 0058801 142.0970 170.3604  1.00260364 23452
USA 271                 
1 41745U 16052B   25066.99045419 -.00000290  00000+0  00000+0 0  9995
2 41745   2.9744  83.1539 0003039 281.1898 255.8099  1.00194132 23240
INTELSAT 36 (IS-36)     
1 41747U 16053A   25082.12558748 -.00000022  00000+0  00000+0 0  9998
2 41747   0.0119 166.7503 0000964 160.7812 327.0424  1.00269626 31422
INSAT-3DR               
1 41752U 16054A   25081.84092896 -.00000074  00000+0  00000+0 0  9997
2 41752   0.0684  93.2377 0011838 188.9806 275.0661  1.00271333 31293
GSAT-18                 
1 41793U 16060A   25082.12654316 -.00000074  00000+0  00000+0 0  9992
2 41793   0.0107 138.7983 0000983 100.7528  60.8447  1.00271709 30993
SKY MUSTER 2 (NBN1B)    
1 41794U 16060B   25081.54691848 -.00000241  00000+0  00000+0 0  9995
2 41794   0.0120 230.3206 0001538 140.6216 151.0330  1.00271374 31049
HIMAWARI-9              
1 41836U 16064A   25082.18517222 -.00000272  00000+0  00000+0 0  9994
2 41836   0.0187 141.0691 0001110 240.8280   6.4492  1.00271426 30785
SHIJIAN-17 (SJ-17)      
1 41838U 16065A   25081.93623280  .00000068  00000+0  00000+0 0  9993
2 41838   4.6002  78.0542 0005525 262.7182 358.9353  1.00273852 30680
GOES 16                 
1 41866U 16071A   25082.18939902 -.00000245  00000+0  00000+0 0  9998
2 41866   0.0810 287.4215 0001983  95.2005 151.0110  1.00265770 30579
TIANLIAN 1-04           
1 41869U 16072A   25081.74906083  .00000033  00000+0  00000+0 0  9991
2 41869   0.0966 285.9806 0037361 242.1482  98.7705  1.00270776 30786
WGS F8 (USA 272)        
1 41879U 16075A   25081.64163219 -.00000199  00000+0  00000+0 0  9994
2 41879   0.0064 174.8960 0000025 145.3961 240.8759  1.00270152 30299
FENGYUN 4A              
1 41882U 16077A   25067.80059639 -.00000113  00000+0  00000+0 0  9998
2 41882   1.1339  85.1667 0004787 173.2627 349.1682  1.00660049 30269
ECHOSTAR 19             
1 41893U 16079A   25081.60367174 -.00000134  00000+0  00000+0 0  9995
2 41893   0.0218 154.7649 0001464 218.8431 286.9500  1.00268387 30206
